[{"OBJECT_NAME":"SUPERVIEW NEO-3 01","OBJECT_ID":"2024-072A","EPOCH":"2026-03-09T22:59:09.446208","MEAN_MOTION":15.23128449,"ECCENTRICITY":0.00029396,"INCLINATION":97.4184,"RA_OF_ASC_NODE":150.1524,"ARG_OF_PERICENTER":104.5976,"MEAN_ANOMALY":255.5587,"EPHEMERIS_TYPE":0,"CLASSIFICATION_TYPE":"U","NORAD_CAT_ID":59510,"ELEMENT_SET_NO":999,"REV_AT_EPOCH":10559,"BSTAR":0.00057697543,"MEAN_MOTION_DOT":0.00013563,"MEAN_MOTION_DDOT":0},{"OBJECT_NAME":"CZ-6A DEB","OBJECT_ID":"2022-151SD","EPOCH":"2026-03-09T21:25:15.700512","MEAN_MOTION":15.24469357,"ECCENTRICITY":0.00248717,"INCLINATION":98.6538,"RA_OF_ASC_NODE":157.5128,"ARG_OF_PERICENTER":174.047,"MEAN_ANOMALY":186.1065,"EPHEMERIS_TYPE":0,"CLASSIFICATION_TYPE":"U","NORAD_CAT_ID":54940,"ELEMENT_SET_NO":999,"REV_AT_EPOCH":17680,"BSTAR":0.0087519903,"MEAN_MOTION_DOT":0.00223015,"MEAN_MOTION_DDOT":0}]
